CCSDS_OMM_VERS = 2.0
CREATION_DATE  = 
ORIGINATOR     = 

OBJECT_NAME    = ARIANE 5 R/B
OBJECT_ID      = 2004-049H
CENTER_NAME    = EARTH
REF_FRAME      = TEME
TIME_SYSTEM    = UTC
MEAN_ELEMENT_THEORY = SGP/SGP4

EPOCH          = 2025-11-04T07:29:04.862976
MEAN_MOTION    = 14.84892709
ECCENTRICITY   = .00855166
INCLINATION    = 98.2512
RA_OF_ASC_NODE = 107.2239
ARG_OF_PERICENTER = 38.0818
MEAN_ANOMALY   = 322.6398

EPHEMERIS_TYPE = 0
CLASSIFICATION_TYPE = U
NORAD_CAT_ID   = 28499
ELEMENT_SET_NO = 999
REV_AT_EPOCH   = 12718
BSTAR          = .11677332E-3
MEAN_MOTION_DOT = .996E-5
MEAN_MOTION_DDOT = 0

CCSDS_OMM_VERS = 2.0
CREATION_DATE  = 
ORIGINATOR     = 

OBJECT_NAME    = CZ-2D R/B
OBJECT_ID      = 2005-024B
CENTER_NAME    = EARTH
REF_FRAME      = TEME
TIME_SYSTEM    = UTC
MEAN_ELEMENT_THEORY = SGP/SGP4

EPOCH          = 2025-11-04T07:00:14.095584
MEAN_MOTION    = 15.50610827
ECCENTRICITY   = .0008012
INCLINATION    = 97.3666
RA_OF_ASC_NODE = 314.7987
ARG_OF_PERICENTER = 112.2745
MEAN_ANOMALY   = 247.9357

EPHEMERIS_TYPE = 0
CLASSIFICATION_TYPE = U
NORAD_CAT_ID   = 28738
ELEMENT_SET_NO = 999
REV_AT_EPOCH   = 12029
BSTAR          = .45543603E-3
MEAN_MOTION_DOT = .26063E-3
MEAN_MOTION_DDOT = 0

CCSDS_OMM_VERS = 2.0
CREATION_DATE  = 
ORIGINATOR     = 

OBJECT_NAME    = ALOS (DAICHI)
OBJECT_ID      = 2006-002A
CENTER_NAME    = EARTH
REF_FRAME      = TEME
TIME_SYSTEM    = UTC
MEAN_ELEMENT_THEORY = SGP/SGP4

EPOCH          = 2025-11-04T06:56:31.554240
MEAN_MOTION    = 14.69290571
ECCENTRICITY   = .00014812
INCLINATION    = 98.1027
RA_OF_ASC_NODE = 260.0656
ARG_OF_PERICENTER = 52.0897
MEAN_ANOMALY   = 308.0443

EPHEMERIS_TYPE = 0
CLASSIFICATION_TYPE = U
NORAD_CAT_ID   = 28931
ELEMENT_SET_NO = 999
REV_AT_EPOCH   = 5506
BSTAR          = .31405036E-3
MEAN_MOTION_DOT = .1804E-4
MEAN_MOTION_DDOT = 0

CCSDS_OMM_VERS = 2.0
CREATION_DATE  = 
ORIGINATOR     = 

OBJECT_NAME    = H-2A R/B
OBJECT_ID      = 2006-002B
CENTER_NAME    = EARTH
REF_FRAME      = TEME
TIME_SYSTEM    = UTC
MEAN_ELEMENT_THEORY = SGP/SGP4

EPOCH          = 2025-11-04T02:56:12.356736
MEAN_MOTION    = 15.13500840
ECCENTRICITY   = .00550178
INCLINATION    = 98.2292
RA_OF_ASC_NODE = 79.7576
ARG_OF_PERICENTER = 308.5428
MEAN_ANOMALY   = 51.0877

EPHEMERIS_TYPE = 0
CLASSIFICATION_TYPE = U
NORAD_CAT_ID   = 28932
ELEMENT_SET_NO = 999
REV_AT_EPOCH   = 7542
BSTAR          = .54912693E-3
MEAN_MOTION_DOT = .1013E-3
MEAN_MOTION_DDOT = 0

CCSDS_OMM_VERS = 2.0
CREATION_DATE  = 
ORIGINATOR     = 

OBJECT_NAME    = RESURS-DK 1
OBJECT_ID      = 2006-021A
CENTER_NAME    = EARTH
REF_FRAME      = TEME
TIME_SYSTEM    = UTC
MEAN_ELEMENT_THEORY = SGP/SGP4

EPOCH          = 2025-11-04T04:40:50.433024
MEAN_MOTION    = 15.11842146
ECCENTRICITY   = .0007348
INCLINATION    = 69.9339
RA_OF_ASC_NODE = 201.4233
ARG_OF_PERICENTER = 290.0643
MEAN_ANOMALY   = 69.9731

EPHEMERIS_TYPE = 0
CLASSIFICATION_TYPE = U
NORAD_CAT_ID   = 29228
ELEMENT_SET_NO = 999
REV_AT_EPOCH   = 6855
BSTAR          = .18816448E-3
MEAN_MOTION_DOT = .3119E-4
MEAN_MOTION_DDOT = 0

CCSDS_OMM_VERS = 2.0
CREATION_DATE  = 
ORIGINATOR     = 

OBJECT_NAME    = CZ-4B R/B
OBJECT_ID      = 2006-046C
CENTER_NAME    = EARTH
REF_FRAME      = TEME
TIME_SYSTEM    = UTC
MEAN_ELEMENT_THEORY = SGP/SGP4

EPOCH          = 2025-11-04T01:54:51.762528
MEAN_MOTION    = 15.15295697
ECCENTRICITY   = .00339781
INCLINATION    = 97.5799
RA_OF_ASC_NODE = 348.3258
ARG_OF_PERICENTER = 345.1478
MEAN_ANOMALY   = 14.8752

EPHEMERIS_TYPE = 0
CLASSIFICATION_TYPE = U
NORAD_CAT_ID   = 29507
ELEMENT_SET_NO = 999
REV_AT_EPOCH   = 4101
BSTAR          = .29529863E-3
MEAN_MOTION_DOT = .5571E-4
MEAN_MOTION_DDOT = 0

CCSDS_OMM_VERS = 2.0
CREATION_DATE  = 
ORIGINATOR     = 

OBJECT_NAME    = CZ-2C R/B
OBJECT_ID      = 2007-010B
CENTER_NAME    = EARTH
REF_FRAME      = TEME
TIME_SYSTEM    = UTC
MEAN_ELEMENT_THEORY = SGP/SGP4

EPOCH          = 2025-11-04T04:20:32.651808
MEAN_MOTION    = 14.20185796
ECCENTRICITY   = .00579682
INCLINATION    = 98.3956
RA_OF_ASC_NODE = 62.7772
ARG_OF_PERICENTER = 299.6860
MEAN_ANOMALY   = 59.8554

EPHEMERIS_TYPE = 0
CLASSIFICATION_TYPE = U
NORAD_CAT_ID   = 31114
ELEMENT_SET_NO = 999
REV_AT_EPOCH   = 96190
BSTAR          = .85328813E-4
MEAN_MOTION_DOT = .144E-5
MEAN_MOTION_DDOT = 0

CCSDS_OMM_VERS = 2.0
CREATION_DATE  = 
ORIGINATOR     = 

OBJECT_NAME    = COSMO-SKYMED 1
OBJECT_ID      = 2007-023A
CENTER_NAME    = EARTH
REF_FRAME      = TEME
TIME_SYSTEM    = UTC
MEAN_ELEMENT_THEORY = SGP/SGP4

EPOCH          = 2025-11-04T07:36:44.688960
MEAN_MOTION    = 14.95336714
ECCENTRICITY   = .00011208
INCLINATION    = 97.8849
RA_OF_ASC_NODE = 133.4732
ARG_OF_PERICENTER = 91.0411
MEAN_ANOMALY   = 269.0937

EPHEMERIS_TYPE = 0
CLASSIFICATION_TYPE = U
NORAD_CAT_ID   = 31598
ELEMENT_SET_NO = 999
REV_AT_EPOCH   = 99615
BSTAR          = .32545039E-3
MEAN_MOTION_DOT = .353E-4
MEAN_MOTION_DDOT = 0

CCSDS_OMM_VERS = 2.0
CREATION_DATE  = 
ORIGINATOR     = 

OBJECT_NAME    = COSMOS 2428
OBJECT_ID      = 2007-029A
CENTER_NAME    = EARTH
REF_FRAME      = TEME
TIME_SYSTEM    = UTC
MEAN_ELEMENT_THEORY = SGP/SGP4

EPOCH          = 2025-11-03T17:29:20.179392
MEAN_MOTION    = 14.12891620
ECCENTRICITY   = .00018296
INCLINATION    = 70.9363
RA_OF_ASC_NODE = 107.7802
ARG_OF_PERICENTER = 101.7534
MEAN_ANOMALY   = 258.3792

EPHEMERIS_TYPE = 0
CLASSIFICATION_TYPE = U
NORAD_CAT_ID   = 31792
ELEMENT_SET_NO = 999
REV_AT_EPOCH   = 94630
BSTAR          = -.10300657E-3
MEAN_MOTION_DOT = -.24E-5
MEAN_MOTION_DDOT = 0

CCSDS_OMM_VERS = 2.0
CREATION_DATE  = 
ORIGINATOR     = 

OBJECT_NAME    = SL-16 R/B
OBJECT_ID      = 2007-029B
CENTER_NAME    = EARTH
REF_FRAME      = TEME
TIME_SYSTEM    = UTC
MEAN_ELEMENT_THEORY = SGP/SGP4

EPOCH          = 2025-11-04T02:10:44.686272
MEAN_MOTION    = 14.14803378
ECCENTRICITY   = .00022656
INCLINATION    = 70.9744
RA_OF_ASC_NODE = 76.3959
ARG_OF_PERICENTER = 258.4918
MEAN_ANOMALY   = 274.0538

EPHEMERIS_TYPE = 0
CLASSIFICATION_TYPE = U
NORAD_CAT_ID   = 31793
ELEMENT_SET_NO = 999
REV_AT_EPOCH   = 94760
BSTAR          = .37152363E-4
MEAN_MOTION_DOT = .24E-6
MEAN_MOTION_DDOT = 0

CCSDS_OMM_VERS = 2.0
CREATION_DATE  = 
ORIGINATOR     = 

OBJECT_NAME    = KORONAS-FOTON
OBJECT_ID      = 2009-003A
CENTER_NAME    = EARTH
REF_FRAME      = TEME
TIME_SYSTEM    = UTC
MEAN_ELEMENT_THEORY = SGP/SGP4

EPOCH          = 2025-11-04T07:15:16.608384
MEAN_MOTION    = 15.39923985
ECCENTRICITY   = .00106803
INCLINATION    = 82.4341
RA_OF_ASC_NODE = 45.8876
ARG_OF_PERICENTER = 244.9545
MEAN_ANOMALY   = 115.0592

EPHEMERIS_TYPE = 0
CLASSIFICATION_TYPE = U
NORAD_CAT_ID   = 33504
ELEMENT_SET_NO = 999
REV_AT_EPOCH   = 92642
BSTAR          = .38786139E-3
MEAN_MOTION_DOT = .15507E-3
MEAN_MOTION_DDOT = 0

CCSDS_OMM_VERS = 2.0
CREATION_DATE  = 
ORIGINATOR     = 

OBJECT_NAME    = CZ-2C R/B
OBJECT_ID      = 2011-030B
CENTER_NAME    = EARTH
REF_FRAME      = TEME
TIME_SYSTEM    = UTC
MEAN_ELEMENT_THEORY = SGP/SGP4

EPOCH          = 2025-11-03T17:41:12.518880
MEAN_MOTION    = 14.80685918
ECCENTRICITY   = .0054252
INCLINATION    = 97.8344
RA_OF_ASC_NODE = 262.7270
ARG_OF_PERICENTER = 41.5511
MEAN_ANOMALY   = 5.4498

EPHEMERIS_TYPE = 0
CLASSIFICATION_TYPE = U
NORAD_CAT_ID   = 37731
ELEMENT_SET_NO = 999
REV_AT_EPOCH   = 77145
BSTAR          = .23853489E-3
MEAN_MOTION_DOT = .1827E-4
MEAN_MOTION_DDOT = 0

