ARIANE 5 R/B            
1 28499U 04049H   25308.31186184  .00000996  00000+0  11677-3 0  9997
2 28499  98.2512 107.2239 0085516  38.0818 322.6398 14.84892709127182
CZ-2D R/B               
1 28738U 05024B   25308.29182981  .00026063  00000+0  45544-3 0  9998
2 28738  97.3666 314.7987 0008012 112.2745 247.9357 15.50610827120295
ALOS (DAICHI)           
1 28931U 06002A   25308.28925410  .00001804  00000+0  31405-3 0  9998
2 28931  98.1027 260.0656 0001481  52.0897 308.0443 14.69290571 55064
H-2A R/B                
1 28932U 06002B   25308.12236524  .00010130  00000+0  54913-3 0  9994
2 28932  98.2292  79.7576 0055017 308.5428  51.0877 15.13500840 75420
RESURS-DK 1             
1 29228U 06021A   25308.19502816  .00003119  00000+0  18816-3 0  9992
2 29228  69.9339 201.4233 0007348 290.0643  69.9731 15.11842146 68557
CZ-4B R/B               
1 29507U 06046C   25308.07976577  .00005571  00000+0  29530-3 0  9994
2 29507  97.5799 348.3258 0033978 345.1478  14.8752 15.15295697 41019
CZ-2C R/B               
1 31114U 07010B   25308.18093347  .00000144  00000+0  85329-4 0  9990
2 31114  98.3956  62.7772 0057968 299.6860  59.8554 14.20185796961902
COSMO-SKYMED 1          
1 31598U 07023A   25308.31718390  .00003530  00000+0  32545-3 0  9990
2 31598  97.8849 133.4732 0001120  91.0411 269.0937 14.95336714996155
COSMOS 2428             
1 31792U 07029A   25307.72870578 -.00000240  00000+0 -10301-3 0  9996
2 31792  70.9363 107.7802 0001829 101.7534 258.3792 14.12891620946300
SL-16 R/B               
1 31793U 07029B   25308.09079498  .00000024  00000+0  37152-4 0  9992
2 31793  70.9744  76.3959 0002265 258.4918 274.0538 14.14803378947601
KORONAS-FOTON           
1 33504U 09003A   25308.30227556  .00015507  00000+0  38786-3 0  9997
2 33504  82.4341  45.8876 0010680 244.9545 115.0592 15.39923985926425
CZ-2C R/B               
1 37731U 11030B   25307.73695045  .00001827  00000+0  23853-3 0  9993
2 37731  97.8344 262.7270 0054252  41.5511   5.4498 14.80685918771453
